NORAD_CAT_ID,OBJECT_NAME,OBJECT_TYPE,EPOCH,MEAN_MOTION,ECCENTRICITY,INCLINATION,RA_OF_ASC_NODE,ARG_OF_PERICENTER,MEAN_ANOMALY,BSTAR,MEAN_MOTION_DOT,MEAN_MOTION_DDOT,TLE_LINE0,TLE_LINE1,TLE_LINE2,SEMIMAJOR_AXIS,PERIOD,APOGEE,PERIGEE,DECAYED
49749,STARLINK-3250,PAYLOAD,2022-06-08 08:00:25,15.08843183,0.0002277,53.2126,180.8908,45.1026,315.0151,-2.2425e-05,-6.45e-06,0.0,0 STARLINK-3250,1 49749U 21115AB  22159.33363034 -.00000645  00000-0 -22425-4 0  9993,2 49749  53.2126 180.8908 0002277  45.1026 315.0151 15.08843183 28652,6917.871,95.437,541.311,538.16,0.0
49749,STARLINK-3250,PAYLOAD,2022-06-09 11:01:58,15.08840485,0.0002304,53.2135,175.8364,43.616,316.5014,7.4683e-05,9e-06,0.0,0 STARLINK-3250,1 49749U 21115AB  22160.45970962  .00000900  00000-0  74683-4 0  9997,2 49749  53.2135 175.8364 0002304  43.6160 316.5014 15.08840485 28820,6917.879,95.438,541.338,538.15,0.0
49749,STARLINK-3250,PAYLOAD,2022-06-10 07:42:00,15.08833389,0.0002374,53.2138,171.9702,46.3016,313.8173,-1.6617e-05,-5.53e-06,0.0,0 STARLINK-3250,1 49749U 21115AB  22161.32083814 -.00000553  00000-0 -16617-4 0  9994,2 49749  53.2138 171.9702 0002374  46.3016 313.8173 15.08833389 30063,6917.901,95.438,541.408,538.123,0.0
49749,STARLINK-3250,PAYLOAD,2022-06-10 10:52:47,15.08829263,0.0002337,53.2134,171.3755,43.7157,316.402,-5.3336e-05,-1.137e-05,0.0,0 STARLINK-3250,1 49749U 21115AB  22161.45332251 -.00001137  00000-0 -53336-4 0  9998,2 49749  53.2134 171.3755 0002337  43.7157 316.4020 15.08829263 28970,6917.913,95.438,541.395,538.161,0.0
49749,STARLINK-3250,PAYLOAD,2022-06-10 17:14:19,15.08830795,0.0002348,53.2134,170.1861,43.8946,316.2232,-4.4523e-05,-9.97e-06,0.0,0 STARLINK-3250,1 49749U 21115AB  22161.71828262 -.00000997  00000-0 -44523-4 0  9990,2 49749  53.2134 170.1861 0002348  43.8946 316.2232 15.08830795 29015,6917.909,95.438,541.398,538.149,0.0
49749,STARLINK-3250,PAYLOAD,2022-06-11 09:08:11,15.08832452,0.0002372,53.2134,167.2122,44.4301,315.6881,-4.818e-05,-1.055e-05,0.0,0 STARLINK-3250,1 49749U 21115AB  22162.38068481 -.00001055  00000-0 -48180-4 0  9992,2 49749  53.2134 167.2122 0002372  44.4301 315.6881 15.08832452 30221,6917.903,95.438,541.409,538.128,0.0
49749,STARLINK-3250,PAYLOAD,2022-06-11 17:05:06,15.08833173,0.0002384,53.2134,165.7253,44.7984,315.3201,-3.8719e-05,-9.04e-06,0.0,0 STARLINK-3250,1 49749U 21115AB  22162.71188560 -.00000904  00000-0 -38719-4 0  9999,2 49749  53.2134 165.7253 0002384  44.7984 315.3201 15.08833173 29167,6917.901,95.438,541.415,538.117,0.0
49749,STARLINK-3250,PAYLOAD,2022-06-12 12:09:44,15.08828919,0.000241,53.2135,162.1567,45.756,314.363,7.1089e-05,8.43e-06,0.0,0 STARLINK-3250,1 49749U 21115AB  22163.50676977  .00000843  00000-0  71089-4 0  9998,2 49749  53.2135 162.1567 0002410  45.7560 314.3630 15.08828919 30392,6917.914,95.438,541.446,538.112,0.0
49749,STARLINK-3250,PAYLOAD,2022-06-12 16:55:54,15.08830285,0.0002417,53.2136,161.2645,46.0961,314.023,7.5812e-05,9.18e-06,0.0,0 STARLINK-3250,1 49749U 21115AB  22163.70549013  .00000918  00000-0  75812-4 0  9991,2 49749  53.2136 161.2645 0002417  46.0961 314.0230 15.08830285 29318,6917.91,95.438,541.447,538.103,0.0
49749,STARLINK-3250,PAYLOAD,2022-06-13 12:00:31,15.08837367,0.0002445,53.2139,157.6961,48.7578,311.3624,0.00010212,1.337e-05,0.0,0 STARLINK-3250,1 49749U 21115AB  22164.50036906  .00001337  00000-0  10212-3 0  9990,2 49749  53.2139 157.6961 0002445  48.7578 311.3624 15.08837367 29433,6917.888,95.438,541.445,538.062,0.0
49749,STARLINK-3250,PAYLOAD,2022-06-13 16:46:41,15.08839269,0.0002468,53.2141,156.8039,48.9026,311.2178,0.00011145,1.486e-05,0.0,0 STARLINK-3250,1 49749U 21115AB  22164.69908799  .00001486  00000-0  11145-3 0  9999,2 49749  53.2141 156.8039 0002468  48.9026 311.2178 15.08839269 30571,6917.883,95.438,541.455,538.04,0.0
49749,STARLINK-3250,PAYLOAD,2022-06-14 08:40:32,15.08846196,0.0002511,53.215,153.8297,50.1116,310.0097,0.00013116,1.8e-05,0.0,0 STARLINK-3250,1 49749U 21115AB  22165.36148414  .00001800  00000-0  13116-3 0  9994,2 49749  53.2150 153.8297 0002511  50.1116 310.0097 15.08846196 29569,6917.861,95.437,541.464,537.989,0.0
49749,STARLINK-3250,PAYLOAD,2022-06-14 16:37:27,15.08850057,0.0002517,53.2152,152.343,50.5063,309.6151,0.00014766,2.063e-05,0.0,0 STARLINK-3250,1 49749U 21115AB  22165.69267973  .00002063  00000-0  14766-3 0  9996,2 49749  53.2152 152.3430 0002517  50.5063 309.6151 15.08850057 30721,6917.85,95.437,541.456,537.973,0.0
49749,STARLINK-3250,PAYLOAD,2022-06-15 05:20:33,15.08837501,0.0002597,53.2156,149.9649,52.7303,307.3925,1.2719e-05,-8.6e-07,0.0,0 STARLINK-3250,1 49749U 21115AB  22166.22261136 -.00000086  00000-0  12719-4 0  9992,2 49749  53.2156 149.9649 0002597  52.7303 307.3925 15.08837501 30800,6917.888,95.438,541.55,537.956,0.0
49749,STARLINK-3250,PAYLOAD,2022-06-15 08:31:19,15.08838606,0.0002611,53.2159,149.3706,51.9648,308.1579,-4.7223e-06,-3.64e-06,0.0,0 STARLINK-3250,1 49749U 21115AB  22166.35509131 -.00000364  00000-0 -47223-5 0  9995,2 49749  53.2159 149.3706 0002611  51.9648 308.1579 15.08838606 29710,6917.885,95.438,541.556,537.943,0.0
49749,STARLINK-3250,PAYLOAD,2022-06-15 16:28:15,15.08841821,0.0002599,53.216,147.8835,52.7516,307.3713,2.177e-05,5.8e-07,0.0,0 STARLINK-3250,1 49749U 21115AB  22166.68628825  .00000058  00000-0  21770-4 0  9999,2 49749  53.2160 147.8835 0002599  52.7516 307.3713 15.08841821 29765,6917.875,95.437,541.538,537.942,0.0
49749,STARLINK-3250,PAYLOAD,2022-06-15 22:49:47,15.08847249,0.0002562,53.2161,146.6935,52.8336,307.289,5.8471e-05,6.42e-06,0.0,0 STARLINK-3250,1 49749U 21115AB  22166.95124313  .00000642  00000-0  58471-4 0  9999,2 49749  53.2161 146.6935 0002562  52.8336 307.2890 15.08847249 29805,6917.858,95.437,541.496,537.951,0.0
49749,STARLINK-3250,PAYLOAD,2022-06-19 07:54:27,15.08838163,0.000257,53.2158,131.5275,53.2312,306.8915,8.1339e-05,1.006e-05,0.0,0 STARLINK-3250,1 49749U 21115AB  22170.32948719  .00001006  00000-0  81339-4 0  9993,2 49749  53.2158 131.5275 0002570  53.2312 306.8915 15.08838163 30315,6917.886,95.438,541.529,537.973,0.0
49749,STARLINK-3250,PAYLOAD,2022-06-19 14:16:00,15.08841853,0.0002567,53.2158,130.338,53.3697,306.7531,8.5851e-05,1.078e-05,0.0,0 STARLINK-3250,1 49749U 21115AB  22170.59444465  .00001078  00000-0  85851-4 0  9993,2 49749  53.2158 130.3380 0002567  53.3697 306.7531 15.08841853 31462,6917.875,95.437,541.516,537.964,0.0
49749,STARLINK-3250,PAYLOAD,2022-06-20 07:45:14,15.08840898,0.0002424,53.2152,127.0673,55.7975,304.3246,-2.2696e-06,-3.25e-06,0.0,0 STARLINK-3250,1 49749U 21115AB  22171.32308556 -.00000325  00000-0 -22696-5 0  9990,2 49749  53.2152 127.0673 0002424  55.7975 304.3246 15.08840898 30465,6917.878,95.437,541.42,538.066,0.0
49749,STARLINK-3250,PAYLOAD,2022-06-20 14:06:46,15.08845362,0.0002365,53.2155,125.8778,54.9402,305.1812,-4.8048e-05,-1.053e-05,0.0,0 STARLINK-3250,1 49749U 21115AB  22171.58804349 -.00001053  00000-0 -48048-4 0  9996,2 49749  53.2155 125.8778 0002365  54.9402 305.1812 15.08845362 30504,6917.864,95.437,541.365,538.093,0.0
49749,STARLINK-3250,PAYLOAD,2022-06-21 01:14:29,15.08833891,0.0002347,53.2165,123.7967,54.8433,305.2779,-2.655e-05,-7.11e-06,0.0,0 STARLINK-3250,1 49749U 21115AB  22172.05173065 -.00000711  00000-0 -26550-4 0  9997,2 49749  53.2165 123.7967 0002347  54.8433 305.2779 15.08833891 31682,6917.899,95.438,541.388,538.14,0.0
49749,STARLINK-3250,PAYLOAD,2022-06-21 06:00:39,15.08833594,0.0002354,53.2165,122.9047,54.9342,305.187,-2.9535e-05,-7.58e-06,0.0,0 STARLINK-3250,1 49749U 21115AB  22172.25045155 -.00000758  00000-0 -29535-4 0  9994,2 49749  53.2165 122.9047 0002354  54.9342 305.1870 15.08833594 30602,6917.9,95.438,541.393,538.136,0.0
49749,STARLINK-3250,PAYLOAD,2022-06-21 20:19:06,15.08840285,0.0002373,53.2166,120.2278,54.6874,305.434,1.0193e-05,-1.26e-06,0.0,0 STARLINK-3250,1 49749U 21115AB  22172.84660692 -.00000126  00000-0  10193-4 0  9996,2 49749  53.2166 120.2278 0002373  54.6874 305.4340 15.08840285 31801,6917.88,95.438,541.386,538.103,0.0
49749,STARLINK-3250,PAYLOAD,2022-06-22 05:51:25,15.08842433,0.0002399,53.2164,118.4437,54.7174,305.4042,9.0428e-05,1.151e-05,0.0,0 STARLINK-3250,1 49749U 21115AB  22173.24404263  .00001151  00000-0  90428-4 0  9998,2 49749  53.2164 118.4437 0002399  54.7174 305.4042 15.08842433 30756,6917.873,95.437,541.398,538.078,0.0
49749,STARLINK-3250,PAYLOAD,2022-06-22 13:48:21,15.08837852,0.0002406,53.2167,116.9571,54.5948,305.5268,3.6613e-05,2.94e-06,0.0,0 STARLINK-3250,1 49749U 21115AB  22173.57524826  .00000294  00000-0  36613-4 0  9995,2 49749  53.2167 116.9571 0002406  54.5948 305.5268 15.08837852 30803,6917.887,95.438,541.416,538.088,0.0
49749,STARLINK-3250,PAYLOAD,2022-06-23 02:31:26,15.08835395,0.0002366,53.2162,114.5778,55.6624,304.4592,6.9641e-05,8.2e-06,0.0,0 STARLINK-3250,1 49749U 21115AB  22174.10516952  .00000820  00000-0  69641-4 0  9998,2 49749  53.2162 114.5778 0002366  55.6624 304.4592 15.08835395 31998,6917.894,95.438,541.396,538.123,0.0
49749,STARLINK-3250,PAYLOAD,2022-06-23 05:42:12,15.08836426,0.0002425,53.2161,113.983,55.907,304.2152,8.1744e-05,1.013e-05,0.0,0 STARLINK-3250,1 49749U 21115AB  22174.23764892  .00001013  00000-0  81744-4 0  9993,2 49749  53.2161 113.9830 0002425  55.9070 304.2152 15.08836426 30909,6917.891,95.438,541.434,538.079,0.0
49749,STARLINK-3250,PAYLOAD,2022-06-24 05:33:00,15.08840135,0.0002513,53.2165,109.5217,65.3102,294.8152,-3.7369e-05,-8.83e-06,0.0,0 STARLINK-3250,1 49749U 21115AB  22175.23125161 -.00000883  00000-0 -37369-4 0  9994,2 49749  53.2165 109.5217 0002513  65.3102 294.8152 15.08840135 32168,6917.88,95.438,541.483,538.007,0.0
49749,STARLINK-3250,PAYLOAD,2022-06-25 11:45:19,15.08835689,0.0002279,53.2161,103.8726,52.0614,308.0584,1.6181e-05,-3.1e-07,0.0,0 STARLINK-3250,1 49749U 21115AB  22176.48981403 -.00000031  00000-0  16181-4 0  9994,2 49749  53.2161 103.8726 0002279  52.0614 308.0584 15.08835689 32352,6917.894,95.438,541.335,538.182,0.0
